STARLINK-4150           
1 53134U 22083C   26068.60842911 -.00001686  00000+0 -87874-4 0  9994
2 53134  53.2177 174.4821 0001347 106.7574 253.3566 15.08830336201207
PRSC-S1                 
1 65055U 25164A   26068.60758212  .00007316  00000+0  46631-3 0  9991
2 65055  41.1290 129.3637 0004466 348.3012  11.7698 15.08919510 33403
